ORBCOMM FM37            
1 33064U 08031E   24150.03134595  .00001674  00000+0  26675-3 0  9996
2 33064  48.4413   5.5566 0006072 175.7967 337.8204 14.76566396857219
ORBCOMM FM40            
1 33065U 08031F   24150.67994539  .00002243  00000+0  33676-3 0  9991
2 33065  48.4434 351.6756 0007582 187.0912 288.8721 14.77919402857795
VESSELSAT 1             
1 37840U 11058C   24150.59326377  .00000395  00000+0  70867-4 0  9999
2 37840  19.9621 254.6798 0013586 288.1269  71.7656 14.11160902652282
ORBCOMM FM109           
1 40086U 14040A   24149.75232400  .00001050  00000+0  27025-3 0  9994
2 40086  47.0042  29.9495 0002077 335.5558  24.5228 14.56683407524980
ORBCOMM FM107           
1 40087U 14040B   24150.74667899  .00001135  00000+0  28898-3 0  9993
2 40087  47.0059  26.2321 0001793 306.4816  53.5904 14.56697570525244
ORBCOMM FM106           
1 40088U 14040C   24150.32931717  .00001023  00000+0  21262-3 0  9995
2 40088  47.0596 239.9387 0016721  84.1958 276.0838 14.67130427527065
ORBCOMM FM111           
1 40089U 14040D   24150.37309251  .00002084  00000+0  28440-3 0  9996
2 40089  47.0026 138.5042 0032135 160.3368 199.8774 14.81925763533211
ORBCOMM FM104           
1 40090U 14040E   24150.11939947  .00000699  00000+0  19839-3 0  9993
2 40090  47.0064  58.3067 0017464 251.9170 107.9812 14.55188298524653
